EARTHCARE               
1 59908U 24101A   24246.61420533  .00029377  00000+0  40422-3 0  9993
2 59908  96.9877  12.6079 0004309 163.3387 196.8012 15.57214948 15022
